COSMOS 2251 DEB         
1 37997U 93036BQY 21267.21386637  .00001892  00000-0  56527-3 0  9998
2 37997  74.0117 227.8920 0054037 288.3309  71.1974 14.42831695390238
COSMOS 2251 DEB         
1 37998U 93036BQZ 21275.47903472  .00000308  00000-0  11025-3 0  9993
2 37998  74.0405 189.9060 0023123 281.4564  78.3993 14.37949278422182
COSMOS 2251 DEB         
1 38000U 93036BRB 21271.78642160  .00005674  00000-0  11545-2 0  9999
2 38000  74.0261  73.8195 0038038 134.9818 225.4442 14.60828009435904
COSMOS 2251 DEB         
1 38001U 93036BRC 21275.62670010  .00001041  00000-0  20352-3 0  9993
2 38001  74.0094 219.9035 0084543  28.2767 146.3332 14.62014483522221
COSMOS 2251 DEB         
1 38004U 93036BRF 21275.87845539  .00000903  00000-0  23913-3 0  9995
2 38004  74.0352 100.1217 0021341 151.1847 209.0497 14.50075588632845
COSMOS 2251 DEB         
1 38006U 93036BRH 21272.92551991  .00001100  00000-0  47041-3 0  9994
2 38006  73.8589 346.7600 0104171 239.5502 119.5321 14.23341382409977
COSMOS 2251 DEB         
1 38054U 93036BRL 21275.93283538  .00001169  00000-0  11623-2 0  9991
2 38054  73.9553 221.7976 0386842 138.6166 299.8075 13.50518016522144
COSMOS 2251 DEB         
1 38055U 93036BRM 21275.73850228  .00000792  00000-0  16842-3 0  9996
2 38055  74.0153 278.2712 0088707  67.3444 106.1288 14.58366657382460
COSMOS 2251 DEB         
1 38056U 93036BRN 21275.59501365  .00001540  00000-0  11617-2 0  9992
2 38056  73.9238 333.5354 0338741 258.8744  97.4118 13.71239409431711
COSMOS 2251 DEB         
1 38057U 93036BRP 21274.34324074  .00000971  00000-0  52257-3 0  9998
2 38057  74.0117 272.0800 0170753  51.0770 310.5449 14.06923869382813
COSMOS 2251 DEB         
1 38058U 93036BRQ 21275.27770424  .00000974  00000-0  85453-3 0  9993
2 38058  74.0064 244.1779 0434163  83.2263 281.8036 13.50765157375672
COSMOS 2251 DEB         
1 38060U 93036BRS 21275.41009336  .00000381  00000-0  93799-4 0  9994
2 38060  74.0460 328.6732 0067519 105.9285 254.9331 14.54365177496323
COSMOS 2251 DEB         
1 38062U 93036BRU 21275.01925058  .00001603  00000-0  38351-3 0  9990
2 38062  74.0256  10.7608 0030095 166.6024   8.4631 14.54158790405565
COSMOS 2251 DEB         
1 38063U 93036BRV 21275.81088984  .00006450  00000-0  73807-3 0  9997
2 38063  74.0126  64.6010 0081669 187.6711 172.3226 14.83767215566330
COSMOS 2251 DEB         
1 38064U 93036BRW 21275.31026796  .00000654  00000-0  19657-3 0  9999
2 38064  74.0249 116.7067 0059793 251.1982 108.2683 14.43709135496776
COSMOS 2251 DEB         
1 38065U 93036BRX 21275.75488010  .00002542  00000-0  63341-3 0  9996
2 38065  74.0295  95.1802 0018304 167.5960 206.2027 14.52091110497874
COSMOS 2251 DEB         
1 38066U 93036BRY 21275.16870058  .00005995  00000-0  92949-3 0  9990
2 38066  74.0229 317.0511 0014198   7.1100 353.0271 14.73307135502382
COSMOS 2251 DEB         
1 38067U 93036BRZ 21275.42411201  .00000232  00000-0  59375-4 0  9997
2 38067  74.0185 307.5287 0077663 114.9653 308.7232 14.54262597402401
COSMOS 2251 DEB         
1 38068U 93036BSA 21273.31491908  .00000223  00000-0  91099-4 0  9995
2 38068  74.0217 238.7492 0027495 333.5400  26.4345 14.32819978446503
COSMOS 2251 DEB         
1 38069U 93036BSB 21275.47238389  .00002635  00000-0  88866-3 0  9993
2 38069  74.1843  85.7815 0098655 321.1067  68.6637 14.34754693389846
COSMOS 2251 DEB         
1 38188U 93036BSC 21275.48444221  .00001298  00000-0  38663-3 0  9994
2 38188  74.0155 176.9182 0044459 275.9417 259.5213 14.43554997440867
COSMOS 2251 DEB         
1 38189U 93036BSD 21274.48535942  .00019245  00000-0  19199-2 0  9998
2 38189  74.0147 194.4519 0009841 231.8102 246.2945 14.91474597448803
COSMOS 2251 DEB         
1 38190U 93036BSE 21275.22709695  .00001652  00000-0  42163-3 0  9992
2 38190  74.0469  88.7582 0018086 150.9761 209.2409 14.51240586526389
COSMOS 2251 DEB         
1 38191U 93036BSF 21276.02120423  .00002426  00000-0  63620-3 0  9999
2 38191  74.0041 151.5124 0042424 227.1074 132.6522 14.49271568581099
COSMOS 2251 DEB         
1 38192U 93036BSG 21276.08188513  .00004628  00000-0  79862-3 0  9991
2 38192  74.0203 306.9330 0018290  30.6441 329.5793 14.68645968563888
COSMOS 2251 DEB         
1 38195U 93036BSK 21274.43592357  .00003374  00000-0  71430-3 0  9996
2 38195  73.8295 312.9008 0042554 155.9708 204.3455 14.59110247445662
COSMOS 2251 DEB         
1 38196U 93036BSL 21274.10124521  .00006480  00000-0  14580-2 0  9998
2 38196  73.8871 193.5289 0189982 337.5098  21.7808 14.46052379430950
COSMOS 2251 DEB         
1 38197U 93036BSM 21275.46003448  .00001730  00000-0  52098-3 0  9993
2 38197  73.9547 343.9716 0234723 203.8059 155.2096 14.28635629636409
COSMOS 2251 DEB         
1 38198U 93036BSN 21274.35236694  .00009377  00000-0  10729-2 0  9991
2 38198  74.0147 157.9298 0033012 263.5189  96.2231 14.85701656604127
COSMOS 2251 DEB         
1 38199U 93036BSP 21274.63075422  .00000343  00000-0  29725-3 0  9994
2 38199  73.9578  52.8201 0379467 281.8793  74.0012 13.61576674401356
COSMOS 2251 DEB         
1 38200U 93036BSQ 21270.53552380  .00010186  00000-0  61642-3 0  9995
2 38200  74.0554 333.5585 0074549   0.2432 359.8781 15.08356814635884
COSMOS 2251 DEB         
1 38208U 93036BSY 21275.80602877  .00001203  00000-0  34148-3 0  9996
2 38208  74.0199 118.1802 0015470 211.2744 163.1641 14.46477260488274
COSMOS 2251 DEB         
1 38210U 93036BTA 21275.58972585  .00004943  00000-0  77952-3 0  9994
2 38210  74.0180 242.1751 0021305   7.0646 353.0822 14.72540842466176
COSMOS 2251 DEB         
1 38212U 93036BTC 21275.69844639  .00000428  00000-0  76069-4 0  9999
2 38212  74.0565 167.7231 0115806 277.0852  81.7159 14.66417842587873
COSMOS 2251 DEB         
1 38213U 93036BTD 21274.73498550  .00002124  00000-0  52703-3 0  9994
2 38213  74.0462  87.4096 0020551 148.2333 212.0074 14.52354624380343
COSMOS 2251 DEB         
1 38215U 93036BTF 21275.27983403  .00004934  00000-0  86663-3 0  9995
2 38215  74.0273 357.2821 0012432  38.9219  17.6655 14.67898533522357
COSMOS 2251 DEB         
1 38216U 93036BTG 21274.26992296  .00069595  00000-0  36590-2 0  9991
2 38216  74.0307 127.3096 0012370 129.3893 230.8400 15.15257695576235
COSMOS 2251 DEB         
1 38220U 93036BTL 21275.30730203  .00001058  00000-0  29480-3 0  9991
2 38220  74.0322 119.6978 0014736 186.4991 173.5979 14.47502678489887
COSMOS 2251 DEB         
1 38221U 93036BTM 21273.64889882  .00005238  00000-0  82336-3 0  9998
2 38221  74.0067 263.2147 0074975  19.5758 340.8264 14.70923631423938
COSMOS 2251 DEB         
1 38478U 93036BTN 21274.51824477  .00011357  00000-0  10054-2 0  9994
2 38478  74.0144 358.4689 0035525 140.0305 220.3505 14.95845424472004
COSMOS 2251 DEB         
1 38479U 93036BTP 21275.73988277  .00001222  00000-0  53974-3 0  9998
2 38479  74.0118  83.2652 0113576 187.1664 186.3104 14.20927011428268
COSMOS 2251 DEB         
1 38480U 93036BTQ 21275.16214272  .00015197  00000-0  78761-3 0  9991
2 38480  73.8258  79.7098 0041249 101.1343 259.4493 15.15429413648853
COSMOS 2251 DEB         
1 38481U 93036BTR 21274.84019395  .00000641  00000-0  44650-3 0  9993
2 38481  73.9341 114.3993 0251877   2.9261 357.3266 13.86525447606675
COSMOS 2251 DEB         
1 38483U 93036BTT 21275.48803880  .00000849  00000-0  38528-3 0  9993
2 38483  74.2663 207.1102 0128352  47.5936 313.5983 14.18966956416866
COSMOS 2251 DEB         
1 38485U 93036BTV 21275.28917583  .00001304  00000-0  26787-3 0  9990
2 38485  74.0178 285.3868 0041934  88.1109 272.4860 14.61160761949447
COSMOS 2251 DEB         
1 38486U 93036BTW 21274.19396012  .00002299  00000-0  75075-3 0  9996
2 38486  73.9587 219.0170 0050223 344.4467  78.7755 14.38446388532091
COSMOS 2251 DEB         
1 38487U 93036BTX 21275.47292421  .00001510  00000-0  26782-3 0  9994
2 38487  74.0045 183.5343 0074859   4.8180 355.3692 14.66392585441206
COSMOS 2251 DEB         
1 39109U 93036BTY 21270.76285016  .00000387  00000-0  87117-4 0  9996
2 39109  74.0467 290.3104 0070716  69.1043  48.2360 14.58370270426973
COSMOS 2251 DEB         
1 39110U 93036BTZ 21275.92235822  .00000417  00000-0  79912-4 0  9999
2 39110  73.9611 150.8550 0110044  23.0888 349.8913 14.63480643488620
COSMOS 2251 DEB         
1 39111U 93036BUA 21275.79372457  .00001475  00000-0  40008-3 0  9999
2 39111  74.0318 111.2305 0023142 186.8903 173.1942 14.48363991426906
COSMOS 2251 DEB         
1 39545U 93036BUB 21275.74708713  .00001478  00000-0  78687-3 0  9990
2 39545  73.9359 294.9084 0204478 171.6554 314.0389 14.04141595396183
COSMOS 2251 DEB         
1 39546U 93036BUC 21275.64430802  .00001171  00000-0  23332-3 0  9998
2 39546  74.0027 241.9290 0071573  59.8446 300.9786 14.61626578418973
COSMOS 2251 DEB         
1 39547U 93036BUD 21275.73674823  .00001531  00000-0  40745-3 0  9999
2 39547  74.0210  87.1776 0014367 192.9267 177.3976 14.49342218415971
COSMOS 2251 DEB         
1 39548U 93036BUE 21270.93224600  .00003835  00000-0  70604-3 0  9997
2 39548  74.0152 346.2788 0015476 324.9274 159.5875 14.65864385509354
COSMOS 2251 DEB         
1 39549U 93036BUF 21270.01345087  .00003935  00000-0  77331-3 0  9995
2 39549  74.0245  15.3611 0021278 339.9853 146.1312 14.62844116417176
COSMOS 2251 DEB         
1 39550U 93036BUG 21271.15610340  .00001835  00000-0  49572-3 0  9993
2 39550  74.1129 237.5570 0117185 242.0964 116.8288 14.44565106392438
COSMOS 2251 DEB         
1 39552U 93036BUJ 21273.76065506  .00001877  00000-0  35608-3 0  9993
2 39552  74.0327 272.3116 0033127 110.7746  63.3866 14.64642938418993
COSMOS 2251 DEB         
1 39553U 93036BUK 21275.16674975  .00000279  00000-0  19377-3 0  9996
2 39553  74.0284  84.3733 0221800 206.1854 152.7926 13.92137784542423
COSMOS 2251 DEB         
1 39554U 93036BUL 21275.57663400  .00001384  00000-0  32109-3 0  9999
2 39554  74.0375   2.4650 0018958 165.8810 256.9712 14.55872675418534
COSMOS 2251 DEB         
1 39582U 93036BUM 21272.37076083  .00001635  00000-0  32582-3 0  9994
2 39582  74.0199 308.9305 0071032  77.9856 282.9260 14.61282285479550
